NORAD_CAT_ID,OBJECT_NAME,OBJECT_TYPE,EPOCH,MEAN_MOTION,ECCENTRICITY,INCLINATION,RA_OF_ASC_NODE,ARG_OF_PERICENTER,MEAN_ANOMALY,BSTAR,MEAN_MOTION_DOT,MEAN_MOTION_DDOT,TLE_LINE0,TLE_LINE1,TLE_LINE2,SEMIMAJOR_AXIS,PERIOD,APOGEE,PERIGEE,DECAYED
49446.0,STARLINK-3099,PAYLOAD,2022-02-05 22:00:01,15.56744035,0.0001302,53.2175,76.1334,46.1281,20.2914,-0.0097493,-0.00654739,0.0,0 STARLINK-3099,1 49446U 21104AQ  22036.91668981 -.00654739  00000-0 -97493-2 0  9996,2 49446  53.2175  76.1334 0001302  46.1281  20.2914 15.56744035 14546,6775.225,92.501,397.972,396.208,0.0
49446.0,STARLINK-3099,PAYLOAD,2022-02-06 14:00:01,15.55809775,0.0001416999999999,53.2172,72.9196,55.8494,147.7521,-0.010051,-0.0065209,0.0,0 STARLINK-3099,1 49446U 21104AQ  22037.58335648 -.00652090  00000-0 -10051-1 0  9993,2 49446  53.2172  72.9196 0001417  55.8494 147.7521 15.55809775  3687,6777.937,92.556,400.762,398.841,0.0
49446.0,STARLINK-3099,PAYLOAD,2022-02-06 22:00:00,15.55344184,0.0001406,53.2175,71.3115,49.8517,221.4364,-0.010257,-0.00653893,0.0,0 STARLINK-3099,1 49446U 21104AQ  22037.91667824 -.00653893  00000-0 -10257-1 0  9994,2 49446  53.2175  71.3115 0001406  49.8517 221.4364 15.55344184 14709,6779.2890000000025,92.584,402.107,400.201,0.0
49446.0,STARLINK-3099,PAYLOAD,2022-02-07 14:00:01,15.54412216,0.0001277,53.2171,68.1048,48.6837,356.4215,-0.010637,-0.00655047,0.0,0 STARLINK-3099,1 49446U 21104AQ  22038.58334491 -.00655047  00000-0 -10637-1 0  9994,2 49446  53.2171  68.1048 0001277  48.6837 356.4215 15.54412216  3682,6781.999,92.64,404.73,402.99800000000016,0.0
49446.0,STARLINK-3099,PAYLOAD,2022-02-07 22:00:00,15.53944727,0.0001448,53.2172,66.5001,44.3014,66.8743,-0.01081,-0.0065444,0.0,0 STARLINK-3099,1 49446U 21104AQ  22038.91667824 -.00654440  00000-0 -10810-1 0  9999,2 49446  53.2172  66.5001 0001448  44.3014  66.8743 15.53944727 14860,6783.359,92.667,406.206,404.242,0.0
49446.0,STARLINK-3099,PAYLOAD,2022-02-08 14:00:01,15.53012887,0.0001381,53.2171,63.2997,59.983,181.6461,-0.01121,-0.00655802,0.0,0 STARLINK-3099,1 49446U 21104AQ  22039.58334491 -.00655802  00000-0 -11210-1 0  9992,2 49446  53.2171  63.2997 0001381  59.9830 181.6461 15.53012887  3708,6786.071999999999,92.723,408.874,407.0,0.0
49446.0,STARLINK-3099,PAYLOAD,2022-02-08 22:00:01,15.52476806,0.0001545,53.2173,61.6972,35.0747,271.0417,-0.0096244,-0.00559043,0.0,0 STARLINK-3099,1 49446U 21104AQ  22039.91668981 -.00559043  00000-0 -96244-2 0  9994,2 49446  53.2173  61.6972 0001545  35.0747 271.0417 15.52476806 15015,6787.634,92.755,410.548,408.45,0.0
49446.0,STARLINK-3099,PAYLOAD,2022-02-09 06:00:00,15.52080661,0.000165,53.2176,60.1016,34.9427,334.8993,-0.011633,-0.00657782,0.0,0 STARLINK-3099,1 49446U 21104AQ  22040.25001157 -.00657782  00000-0 -11633-1 0  9996,2 49446  53.2176  60.1016 0001650  34.9427 334.8993 15.52080661 15063,6788.7890000000025,92.779,411.774,409.534,0.0
49446.0,STARLINK-3099,PAYLOAD,2022-02-09 13:41:14,15.5255059,0.0001107,53.2157,58.5556,43.2148,316.895,-0.0049483,-0.00297969,0.0,0 STARLINK-3099,1 49446U 21104AQ  22040.57031090 -.00297969  00000-0 -49483-2 0  9992,2 49446  53.2157  58.5556 0001107  43.2148 316.8950 15.52550590 14045,6787.419,92.751,410.035,408.533,0.0
49446.0,STARLINK-3099,PAYLOAD,2022-02-10 12:53:08,15.51219652,0.0001829,53.2161,53.9307,20.4661,339.6423,-0.0052739,-0.00302567,0.0,0 STARLINK-3099,1 49446U 21104AQ  22041.53690732 -.00302567  00000-0 -52739-2 0  9992,2 49446  53.2161  53.9307 0001829  20.4661 339.6423 15.51219652 14195,6791.301,92.83,414.408,411.924,0.0
49446.0,STARLINK-3099,PAYLOAD,2022-02-10 14:00:01,15.5021494,0.0001441999999999,53.2171,53.72,52.5567,207.0475,-0.012454,-0.00658461,0.0,0 STARLINK-3099,1 49446U 21104AQ  22041.58335648 -.00658461  00000-0 -12454-1 0  9995,2 49446  53.2171  53.7200 0001442  52.5567 207.0475 15.50214940 15277,6794.235,92.89,417.08,415.12,0.0
49446.0,STARLINK-3099,PAYLOAD,2022-02-10 22:00:00,15.49744866,0.0001506,53.2173,52.1257,41.5477,279.0171,-0.012549,-0.00652942,0.0,0 STARLINK-3099,1 49446U 21104AQ  22041.91667824 -.00652942  00000-0 -12549-1 0  9999,2 49446  53.2173  52.1257 0001506  41.5477 279.0171 15.49744866  3679,6795.609,92.919,418.497,416.45,0.0
49446.0,STARLINK-3099,PAYLOAD,2022-02-11 05:54:42,15.50144637,0.0001545,53.2164,50.5407,42.9509,317.1622,-0.0050013,-0.00277044,0.0,0 STARLINK-3099,1 49446U 21104AQ  22042.24632854 -.00277044  00000-0 -50013-2 0  9996,2 49446  53.2164  50.5407 0001545  42.9509 317.1622 15.50144637 15379,6794.44,92.895,417.355,415.256,0.0
49446.0,STARLINK-3099,PAYLOAD,2022-02-11 14:00:01,15.48813474,0.0001496999999999,53.2171,48.9456,41.1098,39.8169,-0.013011,-0.00654843,0.0,0 STARLINK-3099,1 49446U 21104AQ  22042.58334491 -.00654843  00000-0 -13011-1 0  9991,2 49446  53.2171  48.9456 0001497  41.1098  39.8169 15.48813474 15421,6798.333000000001,92.974,421.216,419.18,0.0
49446.0,STARLINK-3099,PAYLOAD,2022-02-11 22:00:01,15.48228711,0.0001512,53.2167,47.3531,39.0708,101.3318,-0.010092,-0.00507123,0.0,0 STARLINK-3099,1 49446U 21104AQ  22042.91668981 -.00507123  00000-0 -10092-1 0  9996,2 49446  53.2167  47.3531 0001512  39.0708 101.3318 15.48228711  3663,6800.045,93.01,422.93800000000016,420.881,0.0
49446.0,STARLINK-3099,PAYLOAD,2022-02-12 05:08:40,15.48868363,0.0001482,53.2155,45.9257,63.1495,296.9666,-0.0056436,-0.00297998,0.0,0 STARLINK-3099,1 49446U 21104AQ  22043.21435283 -.00297998  00000-0 -56436-2 0  9996,2 49446  53.2155  45.9257 0001482  63.1495 296.9666 15.48868363 15524,6798.172,92.971,421.045,419.03,0.0
49446.0,STARLINK-3099,PAYLOAD,2022-02-12 14:00:01,15.4741553,0.0001549,53.2172,44.1809,47.5793,209.688,-0.013748,-0.00658472,0.0,0 STARLINK-3099,1 49446U 21104AQ  22043.58334491 -.00658472  00000-0 -13748-1 0  9991,2 49446  53.2172  44.1809 0001549  47.5793 209.6880 15.47415530  3695,6802.427,93.058,425.345,423.23800000000006,0.0
49446.0,STARLINK-3099,PAYLOAD,2022-02-12 22:00:00,15.46945501,0.0001541,53.2173,42.5934,41.6803,273.2483,-0.0138419999999999,-0.00652677,0.0,0 STARLINK-3099,1 49446U 21104AQ  22043.91667824 -.00652677  00000-0 -13842-1 0  9993,2 49446  53.2173  42.5934 0001541  41.6803 273.2483 15.46945501  3697,6803.805,93.087,426.718,424.621,0.0
49446.0,STARLINK-3099,PAYLOAD,2022-02-13 14:00:01,15.46014009,0.0001456,53.2172,39.4264,42.6169,25.9462,-0.014342,-0.00654557,0.0,0 STARLINK-3099,1 49446U 21104AQ  22044.58334491 -.00654557  00000-0 -14342-1 0  9993,2 49446  53.2172  39.4264 0001456  42.6169  25.9462 15.46014009  3697,6806.5369999999975,93.143,429.393,427.411,0.0
49446.0,STARLINK-3099,PAYLOAD,2022-02-13 22:00:00,15.45547792,0.0001665999999999,53.2174,37.8423,39.4548,85.0863,-0.014604,-0.00655792,0.0,0 STARLINK-3099,1 49446U 21104AQ  22044.91667824 -.00655792  00000-0 -14604-1 0  9992,2 49446  53.2174  37.8423 0001666  39.4548  85.0863 15.45547792 15791,6807.906,93.171,430.905,428.637,0.0
49446.0,STARLINK-3099,PAYLOAD,2022-02-14 14:00:01,15.44574651,0.000165,53.2167,34.6807,41.8306,193.0024,-0.013738,-0.00600886,0.0,0 STARLINK-3099,1 49446U 21104AQ  22045.58334491 -.00600886  00000-0 -13738-1 0  9998,2 49446  53.2167  34.6807 0001650  41.8306 193.0024 15.44574651  3650,6810.765,93.23,433.754,431.506,0.0
49446.0,STARLINK-3099,PAYLOAD,2022-02-14 20:00:01,15.44263933,0.0001681,53.2172,33.496,43.3741,142.2135,-0.0152169999999999,-0.00654003,0.0,0 STARLINK-3099,1 49446U 21104AQ  22045.83334491 -.00654003  00000-0 -15217-1 0  9990,2 49446  53.2172  33.4960 0001681  43.3741 142.2135 15.44263933  3676,6811.679,93.248,434.689,432.399,0.0
49446.0,STARLINK-3099,PAYLOAD,2022-02-15 06:00:00,15.4358063,0.0001557,53.2172,31.5237,43.368,299.5308,-0.012304,-0.00525344,0.0,0 STARLINK-3099,1 49446U 21104AQ  22046.25001157 -.00525344  00000-0 -12304-1 0  9996,2 49446  53.2172  31.5237 0001557  43.3680 299.5308 15.43580630 15997,6813.689,93.29,436.615,434.49300000000005,0.0
49446.0,STARLINK-3099,PAYLOAD,2022-02-15 14:00:01,15.43188158,0.0001675999999999,53.2167,29.9465,36.0943,359.935,-0.01483,-0.00617389,0.0,0 STARLINK-3099,1 49446U 21104AQ  22046.58334491 -.00617389  00000-0 -14830-1 0  9999,2 49446  53.2167  29.9465 0001676  36.0943 359.9350 15.43188158 16042,6814.844,93.313,437.851,435.567,0.0
49446.0,STARLINK-3099,PAYLOAD,2022-02-15 22:00:01,15.42747295,0.000164,53.2174,28.3701,39.0079,49.6871,-0.016,-0.00660994,0.0,0 STARLINK-3099,1 49446U 21104AQ  22046.91668981 -.00660994  00000-0 -16000-1 0  9991,2 49446  53.2174  28.3701 0001640  39.0079  49.6871 15.42747295  3689,6816.142,93.34,439.125,436.889,0.0
49446.0,STARLINK-3099,PAYLOAD,2022-02-16 06:00:00,15.42281703,0.000184,53.2172,26.7975,38.7141,101.9678,-0.016304,-0.0066294,0.0,0 STARLINK-3099,1 49446U 21104AQ  22047.25001157 -.00662940  00000-0 -16304-1 0  9995,2 49446  53.2172  26.7975 0001840  38.7141 101.9678 15.42281703 16150,6817.514,93.368,440.633,438.125,0.0
49446.0,STARLINK-3099,PAYLOAD,2022-02-16 14:00:01,15.41815387,0.0001665999999999,53.2172,25.2229,45.0829,147.0915,-0.016572,-0.00663299,0.0,0 STARLINK-3099,1 49446U 21104AQ  22047.58334491 -.00663299  00000-0 -16572-1 0  9996,2 49446  53.2172  25.2229 0001666  45.0829 147.0915 15.41815387  3674,6818.889,93.396,441.89,439.61800000000005,0.0
49446.0,STARLINK-3099,PAYLOAD,2022-02-16 22:00:00,15.41245897,0.0001895,53.2168,23.6475,44.333,198.8275,-0.013049,-0.00515675,0.0,0 STARLINK-3099,1 49446U 21104AQ  22047.91667824 -.00515675  00000-0 -13049-1 0  9992,2 49446  53.2168  23.6475 0001895  44.3330 198.8275 15.41245897  3651,6820.568,93.431,443.726,441.141,0.0
49446.0,STARLINK-3099,PAYLOAD,2022-02-17 14:00:01,15.40306267,0.0001589,53.2172,20.507,32.6988,310.6476,-0.013337,-0.00511083,0.0,0 STARLINK-3099,1 49446U 21104AQ  22048.58334491 -.00511083  00000-0 -13337-1 0  9996,2 49446  53.2172  20.5070 0001589  32.6988 310.6476 15.40306267 16358,6823.342,93.488,446.291,444.122,0.0
